[{"OBJECT_ID":"1992-093HT","OBJECT_NAME":"SL-16 DEB","NORAD_CAT_ID":"22571","OBJECT_TYPE":"DEBRIS","PERIOD":"101.327","INCLINATION":"71.3546","ECCENTRICITY":"0.01335970","MEAN_MOTION":"14.21145060","TLE_LINE1":"1 22571U 92093HT  21271.47740503  .00002221  00000-0  95167-3 0  9991","TLE_LINE2":"2 22571  71.3546  79.1966 0133597 170.6119 189.7556 14.21145060456624"},{"OBJECT_ID":"1992-093HW","OBJECT_NAME":"SL-16 DEB","NORAD_CAT_ID":"22574","OBJECT_TYPE":"DEBRIS","PERIOD":"102.445","INCLINATION":"71.0889","ECCENTRICITY":"0.01442630","MEAN_MOTION":"14.05629847","TLE_LINE1":"1 22574U 92093HW  21271.08190265  .00001209  00000-0  70209-3 0  9990","TLE_LINE2":"2 22574  71.0889 190.1454 0144263 239.5527 134.3704 14.05629847458300"},{"OBJECT_ID":"1993-016C","OBJECT_NAME":"SL-16 DEB","NORAD_CAT_ID":"22575","OBJECT_TYPE":"DEBRIS","PERIOD":"104.902","INCLINATION":"71.0037","ECCENTRICITY":"0.02041440","MEAN_MOTION":"13.72711808","TLE_LINE1":"1 22575U 93016C   21271.47454834  .00000019  00000-0  56617-4 0  9991","TLE_LINE2":"2 22575  71.0037  70.5757 0204144  90.3735 333.7478 13.72711808427752"},{"OBJECT_ID":"1993-016D","OBJECT_NAME":"SL-16 DEB","NORAD_CAT_ID":"22576","OBJECT_TYPE":"DEBRIS","PERIOD":"104.882","INCLINATION":"70.9967","ECCENTRICITY":"0.01987540","MEAN_MOTION":"13.72965858","TLE_LINE1":"1 22576U 93016D   21272.38589395  .00000010  00000-0  48186-4 0  9997","TLE_LINE2":"2 22576  70.9967  47.9517 0198754 120.6478 272.9035 13.72965858428564"},{"OBJECT_ID":"1993-016E","OBJECT_NAME":"SL-16 DEB","NORAD_CAT_ID":"22577","OBJECT_TYPE":"DEBRIS","PERIOD":"99.804","INCLINATION":"71.0402","ECCENTRICITY":"0.01195440","MEAN_MOTION":"14.42825636","TLE_LINE1":"1 22577U 93016E   21271.43410715 -.00000016  00000-0  11174-4 0  9996","TLE_LINE2":"2 22577  71.0402 146.7482 0119544 310.6266 223.3216 14.42825636500789"},{"OBJECT_ID":"1993-016F","OBJECT_NAME":"SL-16 DEB","NORAD_CAT_ID":"22578","OBJECT_TYPE":"DEBRIS","PERIOD":"99.337","INCLINATION":"71.0671","ECCENTRICITY":"0.01117370","MEAN_MOTION":"14.49604627","TLE_LINE1":"1 22578U 93016F   21271.96465372  .00000154  00000-0  51009-4 0  9997","TLE_LINE2":"2 22578  71.0671  10.0163 0111737 144.0531 330.6372 14.49604627505464"},{"OBJECT_ID":"1993-016G","OBJECT_NAME":"SL-16 DEB","NORAD_CAT_ID":"22579","OBJECT_TYPE":"DEBRIS","PERIOD":"99.697","INCLINATION":"71.0290","ECCENTRICITY":"0.01086750","MEAN_MOTION":"14.44378426","TLE_LINE1":"1 22579U 93016G   21272.04188623  .00000040  00000-0  26120-4 0  9999","TLE_LINE2":"2 22579  71.0290 133.8328 0108675 310.9903 199.1214 14.44378426500865"},{"OBJECT_ID":"1992-093HX","OBJECT_NAME":"SL-16 DEB","NORAD_CAT_ID":"22598","OBJECT_TYPE":"DEBRIS","PERIOD":"102.713","INCLINATION":"70.6486","ECCENTRICITY":"0.00943590","MEAN_MOTION":"14.01959481","TLE_LINE1":"1 22598U 92093HX  21272.33312697  .00000261  00000-0  19597-3 0  9990","TLE_LINE2":"2 22598  70.6486 359.0267 0094359 277.9735  81.0678 14.01959481466122"},{"OBJECT_ID":"1993-014E","OBJECT_NAME":"SL-18 DEB","NORAD_CAT_ID":"22599","OBJECT_TYPE":"DEBRIS","PERIOD":"99.877","INCLINATION":"75.7561","ECCENTRICITY":"0.01487930","MEAN_MOTION":"14.41778784","TLE_LINE1":"1 22599U 93014E   21271.38729808  .00000405  00000-0  11263-3 0  9997","TLE_LINE2":"2 22599  75.7561 316.0521 0148793  75.1325 286.6265 14.41778784490541"},{"OBJECT_ID":"1993-016J","OBJECT_NAME":"SL-16 DEB","NORAD_CAT_ID":"22600","OBJECT_TYPE":"DEBRIS","PERIOD":"104.196","INCLINATION":"70.9170","ECCENTRICITY":"0.01586750","MEAN_MOTION":"13.82005582","TLE_LINE1":"1 22600U 93016J   21271.51835275 -.00000005  00000-0  33144-4 0  9993","TLE_LINE2":"2 22600  70.9170   8.8998 0158675 149.0357 223.7152 13.82005582437616"},{"OBJECT_ID":"1993-016K","OBJECT_NAME":"SL-16 DEB","NORAD_CAT_ID":"22601","OBJECT_TYPE":"DEBRIS","PERIOD":"104.463","INCLINATION":"71.0412","ECCENTRICITY":"0.01786480","MEAN_MOTION":"13.78474488","TLE_LINE1":"1 22601U 93016K   21271.42863827  .00000025  00000-0  60408-4 0  9992","TLE_LINE2":"2 22601  71.0412 278.3655 0178648 232.8405 125.6270 13.78474488433717"},{"OBJECT_ID":"1993-016L","OBJECT_NAME":"SL-16 DEB","NORAD_CAT_ID":"22602","OBJECT_TYPE":"DEBRIS","PERIOD":"104.840","INCLINATION":"71.0425","ECCENTRICITY":"0.01999610","MEAN_MOTION":"13.73525777","TLE_LINE1":"1 22602U 93016L   21271.46617437  .00000013  00000-0  50700-4 0  9992","TLE_LINE2":"2 22602  71.0425  84.5888 0199961  30.9781 357.8654 13.73525777428545"},{"OBJECT_ID":"1993-016M","OBJECT_NAME":"SL-16 DEB","NORAD_CAT_ID":"22603","OBJECT_TYPE":"DEBRIS","PERIOD":"104.457","INCLINATION":"70.9968","ECCENTRICITY":"0.01614580","MEAN_MOTION":"13.78552059","TLE_LINE1":"1 22603U 93016M   21271.30009521 -.00000020  00000-0  21495-4 0  9993","TLE_LINE2":"2 22603  70.9968 207.2018 0161458 311.7073 166.6495 13.78552059434127"},{"OBJECT_ID":"1993-016N","OBJECT_NAME":"SL-16 DEB","NORAD_CAT_ID":"22604","OBJECT_TYPE":"DEBRIS","PERIOD":"104.627","INCLINATION":"70.9914","ECCENTRICITY":"0.01695470","MEAN_MOTION":"13.76323489","TLE_LINE1":"1 22604U 93016N   21271.80403256 -.00000020  00000-0  21706-4 0  9997","TLE_LINE2":"2 22604  70.9914 278.7074 0169547  11.0870 161.9275 13.76323489432231"},{"OBJECT_ID":"1993-016P","OBJECT_NAME":"SL-16 DEB","NORAD_CAT_ID":"22605","OBJECT_TYPE":"DEBRIS","PERIOD":"103.596","INCLINATION":"70.9979","ECCENTRICITY":"0.01301120","MEAN_MOTION":"13.90015599","TLE_LINE1":"1 22605U 93016P   21271.26129713  .00000105  00000-0  11312-3 0  9995","TLE_LINE2":"2 22605  70.9979 214.3733 0130112  31.4096 117.2469 13.90015599444770"},{"OBJECT_ID":"1993-016Q","OBJECT_NAME":"SL-16 DEB","NORAD_CAT_ID":"22606","OBJECT_TYPE":"DEBRIS","PERIOD":"103.829","INCLINATION":"71.0051","ECCENTRICITY":"0.01489780","MEAN_MOTION":"13.86898535","TLE_LINE1":"1 22606U 93016Q   21271.43964433  .00000234  00000-0  21813-3 0  9991","TLE_LINE2":"2 22606  71.0051  15.9011 0148978 151.9206 282.4914 13.86898535440251"},{"OBJECT_ID":"1993-016R","OBJECT_NAME":"SL-16 DEB","NORAD_CAT_ID":"22607","OBJECT_TYPE":"DEBRIS","PERIOD":"104.670","INCLINATION":"70.9913","ECCENTRICITY":"0.01726520","MEAN_MOTION":"13.75754537","TLE_LINE1":"1 22607U 93016R   21271.45837934 -.00000025  00000-0  16108-4 0  9990","TLE_LINE2":"2 22607  70.9913 297.6995 0172652  29.4347  80.1121 13.75754537431241"},{"OBJECT_ID":"1993-016S","OBJECT_NAME":"SL-16 DEB","NORAD_CAT_ID":"22608","OBJECT_TYPE":"DEBRIS","PERIOD":"104.007","INCLINATION":"71.0073","ECCENTRICITY":"0.01303940","MEAN_MOTION":"13.84528536","TLE_LINE1":"1 22608U 93016S   21271.55957087 -.00000021  00000-0  18755-4 0  9990","TLE_LINE2":"2 22608  71.0073   4.6722 0130394 165.3765 210.1529 13.84528536440498"},{"OBJECT_ID":"1993-016T","OBJECT_NAME":"SL-16 DEB","NORAD_CAT_ID":"22609","OBJECT_TYPE":"DEBRIS","PERIOD":"103.797","INCLINATION":"70.9956","ECCENTRICITY":"0.01369360","MEAN_MOTION":"13.87325188","TLE_LINE1":"1 22609U 93016T   21271.46206028  .00000089  00000-0  10450-3 0  9999","TLE_LINE2":"2 22609  70.9956 336.7753 0136936 155.3807 218.6574 13.87325188441208"},{"OBJECT_ID":"1993-016U","OBJECT_NAME":"SL-16 DEB","NORAD_CAT_ID":"22610","OBJECT_TYPE":"DEBRIS","PERIOD":"105.286","INCLINATION":"71.0012","ECCENTRICITY":"0.02147760","MEAN_MOTION":"13.67709001","TLE_LINE1":"1 22610U 93016U   21271.32225127 -.00000025  00000-0  17318-4 0  9999","TLE_LINE2":"2 22610  71.0012 214.9402 0214776 212.0593 146.7294 13.67709001423023"},{"OBJECT_ID":"1993-016V","OBJECT_NAME":"SL-16 DEB","NORAD_CAT_ID":"22611","OBJECT_TYPE":"DEBRIS","PERIOD":"104.520","INCLINATION":"70.9893","ECCENTRICITY":"0.01712970","MEAN_MOTION":"13.77727631","TLE_LINE1":"1 22611U 93016V   21271.39667328  .00000064  00000-0  96634-4 0  9990","TLE_LINE2":"2 22611  70.9893 270.0808 0171297  12.0486 103.6146 13.77727631432074"},{"OBJECT_ID":"1993-016W","OBJECT_NAME":"SL-16 DEB","NORAD_CAT_ID":"22612","OBJECT_TYPE":"DEBRIS","PERIOD":"101.452","INCLINATION":"70.9848","ECCENTRICITY":"0.00844380","MEAN_MOTION":"14.19396340","TLE_LINE1":"1 22612U 93016W   21271.47419154  .00000834  00000-0  40439-3 0  9998","TLE_LINE2":"2 22612  70.9848  25.2028 0084438  42.5854  31.7298 14.19396340461039"},{"OBJECT_ID":"1993-016X","OBJECT_NAME":"SL-16 DEB","NORAD_CAT_ID":"22613","OBJECT_TYPE":"DEBRIS","PERIOD":"104.713","INCLINATION":"71.0003","ECCENTRICITY":"0.01955050","MEAN_MOTION":"13.75181143","TLE_LINE1":"1 22613U 93016X   21271.42919560  .00000126  00000-0  15264-3 0  9992","TLE_LINE2":"2 22613  71.0003  56.1057 0195505 101.3114 292.3686 13.75181143427943"},{"OBJECT_ID":"1993-016Y","OBJECT_NAME":"SL-16 DEB","NORAD_CAT_ID":"22614","OBJECT_TYPE":"DEBRIS","PERIOD":"103.770","INCLINATION":"71.0010","ECCENTRICITY":"0.01290020","MEAN_MOTION":"13.87677819","TLE_LINE1":"1 22614U 93016Y   21271.44087343 -.00000043  00000-0  99838-6 0  9991","TLE_LINE2":"2 22614  71.0010 327.6571 0129002 142.4336 229.5295 13.87677819441228"},{"OBJECT_ID":"1993-016Z","OBJECT_NAME":"SL-16 DEB","NORAD_CAT_ID":"22615","OBJECT_TYPE":"DEBRIS","PERIOD":"103.565","INCLINATION":"71.0039","ECCENTRICITY":"0.01338880","MEAN_MOTION":"13.90432605","TLE_LINE1":"1 22615U 93016Z   21271.52055656  .00000180  00000-0  16751-3 0  9994","TLE_LINE2":"2 22615  71.0039 314.0296 0133888 124.1945 355.7282 13.90432605442005"},{"OBJECT_ID":"1993-016AA","OBJECT_NAME":"SL-16 DEB","NORAD_CAT_ID":"22616","OBJECT_TYPE":"DEBRIS","PERIOD":"104.850","INCLINATION":"70.9969","ECCENTRICITY":"0.01859280","MEAN_MOTION":"13.73390798","TLE_LINE1":"1 22616U 93016AA  21271.48058622  .00000003  00000-0  42612-4 0  9996","TLE_LINE2":"2 22616  70.9969  37.3923 0185928 101.6249 327.8217 13.73390798428512"},{"OBJECT_ID":"1993-016AB","OBJECT_NAME":"SL-16 DEB","NORAD_CAT_ID":"22617","OBJECT_TYPE":"DEBRIS","PERIOD":"103.671","INCLINATION":"71.0044","ECCENTRICITY":"0.01352320","MEAN_MOTION":"13.89014170","TLE_LINE1":"1 22617U 93016AB  21271.48756649  .00000140  00000-0  14120-3 0  9995","TLE_LINE2":"2 22617  71.0044 337.5157 0135232 145.2475 230.6252 13.89014170441048"}]